[{"id":"2698","name":"Jean Luc Tartarin","address":{"address_locality":"Le Havre","postal_code":"76600"}},
{"id":"28557","name":"La Grange de Belle Eglise","address":{"address_locality":"Belle-Église","postal_code":"60540"}},
{"id":"6448","name":"Les Bacchanales - Christophe Dufau","address":{"address_locality":"Vence","postal_code":"06140"}},
{"id":"202436","name":"Le Chateaubriand","address":{"address_locality":"Paris","postal_code":"75011"}},
{"id":"31008","name":"Alcyone","address":{"address_locality":"Marseille","postal_code":"13002"}},
{"id":"6437","name":"Atelier du Peintre","address":{"address_locality":"Colmar","postal_code":"68000"}},
{"id":"313905","name":"Auberge le Prieuré","address":{"address_locality":"Moirax","postal_code":"47310"}},
{"id":"78533","name":"Le Quincangrogne","address":{"address_locality":"Dampmart","postal_code":"77400"}},
{"id":"5649","name":"La Grand'Vigne - Hôtel Les Sources de Caudalie","address":{"address_locality":"Martillac","postal_code":"33650"}},
{"id":"200546","name":"Sylvestre - Hôtel Thoumieux","address":{"address_locality":"Paris","postal_code":"75007"}},
{"id":"4904","name":"Hostellerie de Plaisance","address":{"address_locality":"Saint-Émilion","postal_code":"33330"}},
{"id":"77626","name":"Alliance","address":{"address_locality":"Paris","postal_code":"75005"}},
{"id":"60859","name":"Nakatani","address":{"address_locality":"Paris","postal_code":"75007"}},
{"id":"25896","name":"Benoit - Alain Ducasse","address":{"address_locality":"Paris","postal_code":"75004"}},
{"id":"22504","name":"L'Epuisette","address":{"address_locality":"Marseille","postal_code":"13007"}},
{"id":"5355","name":"Auberge du Pont de Collonges - Paul Bocuse","address":{"address_locality":"Collonges-au-Mont-d'Or","postal_code":"69660"}},
{"id":"276775","name":"Garopapilles","address":{"address_locality":"Bordeaux","postal_code":"33000"}},
{"id":"209193","name":"Ed.Em","address":{"address_locality":"Chassagne-Montrachet","postal_code":"21190"}},
{"id":"2998","name":"Christopher Coutanceau","address":{"address_locality":"La Rochelle","postal_code":"17000"}},
{"id":"10382","name":"Le Strasbourg","address":{"address_locality":"Bitche","postal_code":"57230"}},
{"id":"2185","name":"Antoine - Thibault Sombardier","address":{"address_locality":"Paris","postal_code":"75116"}},
{"id":"4697","name":"Les Terrasses de Lyon","address":{"address_locality":"Lyon","postal_code":"69005"}},
{"id":"5619","name":"Restaurant Stéphane Derbord","address":{"address_locality":"Dijon","postal_code":"21000"}},
{"id":"566","name":"L'Almandin","address":{"address_locality":"Saint-Cyprien","postal_code":"66750"}},
{"id":"38155","name":"Flaveur","address":{"address_locality":"Nice","postal_code":"06000"}},
{"id":"1226","name":"Le Figuier de Saint-Esprit","address":{"address_locality":"Antibes","postal_code":"06600"}},
{"id":"7130","name":"Le Clos des Sens","address":{"address_locality":"Annecy-le-Vieux","postal_code":"74940"}},
{"id":"1310","name":"Le Phebus - Xavier Mathieu","address":{"address_locality":"Joucas","postal_code":"84220"}},
{"id":"291337","name":"Epicure - Le Bristol Paris","address":{"address_locality":"Paris","postal_code":"75008"}},
{"id":"3552","name":"Maison Lameloise","address":{"address_locality":"Chagny","postal_code":"71150"}},
{"id":"529","name":"Le Puits du Trésor","address":{"address_locality":"Lastours","postal_code":"11600"}},
{"id":"26327","name":"Elsa - Hôtel Monte-Carlo Beach","address":{"address_locality":"Roquebrune-Cap-Martin","postal_code":"06190"}},
{"id":"953","name":"La Bonne Etape","address":{"address_locality":"Château-Arnoux-Saint-Auban","postal_code":"04160"}},
{"id":"689","name":"Le Prieuré","address":{"address_locality":"Villeneuve-lès-Avignon","postal_code":"30400"}},
{"id":"27598","name":"Hôtel Restaurant Les Bories","address":{"address_locality":"Gordes","postal_code":"84220"}},
{"id":"8628","name":"Le Park 45","address":{"address_locality":"Cannes","postal_code":"06400"}},
{"id":"310489","name":"Le Saint-Laurent","address":{"address_locality":"Paris","postal_code":"75008"}},
{"id":"25","name":"Loiseau rive Gauche","address":{"address_locality":"Paris","postal_code":"75007"}},
{"id":"330375","name":"Le Village","address":{"address_locality":"Marly-le-Roi","postal_code":"78160"}},
{"id":"3401","name":"Le Bec Au Cauchois Restaurant Pierre Caillet","address":{"address_locality":"Valmont","postal_code":"76540"}},
{"id":"201032","name":"Le 1920","address":{"address_locality":"Megève","postal_code":"74120"}},
{"id":"7135","name":"Les Trois Rochers - La Villa Tri Men","address":{"address_locality":"Combrit","postal_code":"29120"}},
{"id":"43399","name":"La Grignotière","address":{"address_locality":"Raismes","postal_code":"59590"}},
{"id":"28558","name":"Le Gourmet de Sèze - Bernard Mariller","address":{"address_locality":"Lyon","postal_code":"69006"}},
{"id":"60777","name":"1912","address":{"address_locality":"Trouville-sur-Mer","postal_code":"14360"}},
{"id":"1009","name":"Domaine des Séquoias","address":{"address_locality":"Ruy","postal_code":"38300"}},
{"id":"69375","name":"Au Trou Gascon - Alain Dutournier","address":{"address_locality":"Paris","postal_code":"75012"}},
{"id":"26660","name":"La Vague d'Or","address":{"address_locality":"Saint-Tropez","postal_code":"83990"}},
{"id":"8977","name":"Shang Palace - Shangri-La Hotel, Paris","address":{"address_locality":"Paris","postal_code":"75016"}},
{"id":"297223","name":"Leroy's Restaurant","address":{"address_locality":"Paris","postal_code":"75006"}},
{"id":"5020","name":"La Fourchette du Printemps - Nicolas Mouton","address":{"address_locality":"Paris","postal_code":"75017"}},
{"id":"28453","name":"Le 1217","address":{"address_locality":"Bagnols","postal_code":"69620"}},
{"id":"51875","name":"L'Auberge Tiegezh","address":{"address_locality":"Guer","postal_code":"56380"}},
{"id":"337449","name":"Comice","address":{"address_locality":"Paris","postal_code":"75016"}},
{"id":"317277","name":"Quinsou","address":{"address_locality":"Paris","postal_code":"75006"}},
{"id":"272053","name":"Divellec","address":{"address_locality":"Paris","postal_code":"75007"}},
{"id":"25701","name":"Garance","address":{"address_locality":"Paris","postal_code":"75007"}},
{"id":"2889","name":"La Marande","address":{"address_locality":"Montbellet","postal_code":"71260"}},
{"id":"212971","name":"L'Odas","address":{"address_locality":"Rouen","postal_code":"76000"}},
{"id":"3131","name":"Gordon Ramsay au Trianon","address":{"address_locality":"Versailles","postal_code":"78000"}},
{"id":"18188","name":"Le Pressoir","address":{"address_locality":"Saint-Avé","postal_code":"56890"}},
{"id":"6482","name":"Le Vieux Pont","address":{"address_locality":"Belcastel","postal_code":"12390"}},
{"id":"26201","name":"Restaurant Auguste - Gaël Orieux","address":{"address_locality":"Paris","postal_code":"75007"}},
{"id":"284489","name":"L'Archeste","address":{"address_locality":"Paris","postal_code":"75116"}},
{"id":"4977","name":"Le Saint-James - Nicolas Magie","address":{"address_locality":"Bouliac","postal_code":"33270"}},
{"id":"276169","name":"Ken Kawasaki","address":{"address_locality":"Paris","postal_code":"75018"}},
{"id":"7876","name":"Mon Plaisir","address":{"address_locality":"Chamesol","postal_code":"25190"}},
{"id":"21095","name":"Jérémy Galvan Restaurant","address":{"address_locality":"Lyon","postal_code":"69005"}},
{"id":"341313","name":"Les Jardins de l'Opéra","address":{"address_locality":"Toulouse","postal_code":"31000"}},
{"id":"275","name":"Restaurant le Meurice Alain Ducasse","address":{"address_locality":"Paris","postal_code":"75001"}},
{"id":"618","name":"Le Dalí - Hôtel le Meurice - Alain Ducasse","address":{"address_locality":"Paris","postal_code":"75001"}},
{"id":"46990","name":"RACKHAM","address":{"address_locality":"Roscoff","postal_code":"29680"}},
{"id":"5623","name":"Le Corot - Hôtel Les Étangs de Corot","address":{"address_locality":"Ville-d'Avray","postal_code":"92410"}},
{"id":"305067","name":"Les Paillotes - Hôtel Les Étangs de Corot","address":{"address_locality":"Ville-d&#39;Avray","postal_code":"92410"}},
{"id":"8973","name":"Le Café des Artistes - Hôtel Les Étangs de Corot","address":{"address_locality":"Ville-d'Avray","postal_code":"92410"}},
{"id":"6018","name":"Le Vieux Logis","address":{"address_locality":"Trémolat","postal_code":"24510"}},
{"id":"60418","name":"Apicius","address":{"address_locality":"Paris","postal_code":"75008"}},
{"id":"214579","name":"L'Arcane","address":{"address_locality":"Paris","postal_code":"75018"}},
{"id":"3157","name":"Restaurant Gill \"Relais & Châteaux\"","address":{"address_locality":"Rouen","postal_code":"76000"}},
{"id":"78423","name":"L’Atelier de Gaztelur","address":{"address_locality":"Arcangues","postal_code":"64200"}},
{"id":"74933","name":"Le Clarence","address":{"address_locality":"Paris","postal_code":"75008"}},
{"id":"250","name":"Lasserre","address":{"address_locality":"Paris","postal_code":"75008"}},
{"id":"351691","name":"Restaurant Origine","address":{"address_locality":"Rouen","postal_code":"76000"}},
{"id":"11743","name":"Briketenia","address":{"address_locality":"Guéthary","postal_code":"64210"}},
{"id":"306505","name":"Le Pavillon","address":{"address_locality":"Le Touquet-Paris-Plage","postal_code":"62520"}},
{"id":"36884","name":"La Table d'Eugène","address":{"address_locality":"Paris","postal_code":"75018"}},
{"id":"33786","name":"Le 1947 - Cheval Blanc Courchevel","address":{"address_locality":"La Perrière","postal_code":"73120"}},
{"id":"6655","name":"Bistrot Gourmand Clovis","address":{"address_locality":"Tourrettes-sur-Loup","postal_code":"06140"}},
{"id":"324425","name":"Le Neuvième Art","address":{"address_locality":"Lyon","postal_code":"69006"}},
{"id":"9228","name":"Le Baudelaire - Hôtel Le Burgundy Paris","address":{"address_locality":"Paris","postal_code":"75001"}},
{"id":"61705","name":"Le Camelia","address":{"address_locality":"Bougival","postal_code":"78380"}},
{"id":"21632","name":"L'Essentiel","address":{"address_locality":"Deauville","postal_code":"14800"}},
{"id":"23087","name":"Frédéric Simonin","address":{"address_locality":"Paris","postal_code":"75017"}},
{"id":"75533","name":"La Tour des Vents","address":{"address_locality":"Monbazillac","postal_code":"24240"}},
{"id":"77613","name":"Le Meurin","address":{"address_locality":"Busnes","postal_code":"62350"}},
{"id":"326081","name":"L'Écrin","address":{"address_locality":"Paris","postal_code":"75008"}},
{"id":"68308","name":"Restaurant Thierry Drapeau","address":{"address_locality":"Saint-Sulpice-le-Verdon","postal_code":"85260"}},
{"id":"347931","name":"Sept","address":{"address_locality":"Toulouse","postal_code":"31000"}},
{"id":"38154","name":"L'Aromate","address":{"address_locality":"Nice","postal_code":"06000"}},
{"id":"269931","name":"Les Jardins de L'Espadon - Ritz Paris","address":{"address_locality":"Paris","postal_code":"75001"}},
{"id":"416","name":"Hostellerie Bérard & spa","address":{"address_locality":"La Cadière-d'Azur","postal_code":"83740"}},
{"id":"26601","name":"Restaurant Numéro 3","address":{"address_locality":"Le Tremblay-sur-Mauldre","postal_code":"78490"}},
{"id":"205419","name":"La Dame de Pic - Anne-Sophie PIC - Paris","address":{"address_locality":"Paris","postal_code":"75001"}},
{"id":"324473","name":"Le Faventia","address":{"address_locality":"Tourrettes","postal_code":"83440"}},
{"id":"7715","name":"Terre Mer","address":{"address_locality":"Auray","postal_code":"56400"}},
{"id":"38822","name":"Paloma","address":{"address_locality":"Mougins","postal_code":"06250"}},
{"id":"10889","name":"Septime","address":{"address_locality":"Paris","postal_code":"75011"}},
{"id":"3806","name":"L'Assiette Champenoise","address":{"address_locality":"Tinqueux","postal_code":"51430"}},
{"id":"713","name":"L'Arôme","address":{"address_locality":"Paris","postal_code":"75008"}},
{"id":"5727","name":"Mavrommatis","address":{"address_locality":"Paris","postal_code":"75005"}},
{"id":"378","name":"Ithurria","address":{"address_locality":"Ainhoa","postal_code":"64250"}},
{"id":"44919","name":"Miraflores","address":{"address_locality":"Lyon","postal_code":"69006"}},
{"id":"53038","name":"Le Gabriel - La Réserve Paris","address":{"address_locality":"Paris","postal_code":"75008"}},
{"id":"31795","name":"L'Auberge du Vert Mont","address":{"address_locality":"Boeschepe","postal_code":"59299"}},
{"id":"30315","name":"Les Climats","address":{"address_locality":"Paris","postal_code":"75007"}},
{"id":"19211","name":"Le 1741","address":{"address_locality":"Strasbourg","postal_code":"67000"}},
{"id":"205737","name":"Le Violon d'Ingres - Christian Constant","address":{"address_locality":"Paris","postal_code":"75007"}},
{"id":"221","name":"Le France","address":{"address_locality":"Villers-le-Lac","postal_code":"25130"}},
{"id":"6710","name":"Les Rosiers","address":{"address_locality":"Biarritz","postal_code":"64200"}},
{"id":"1086","name":"Le Vivier","address":{"address_locality":"L'Isle-sur-la-Sorgue","postal_code":"84800"}},
{"id":"291883","name":"La Table de l'Alpaga","address":{"address_locality":"Megève","postal_code":"74120"}},
{"id":"18271","name":"Le Clair de la Plume","address":{"address_locality":"Grignan","postal_code":"26230"}},
{"id":"405","name":"Maison Rostang","address":{"address_locality":"Paris","postal_code":"75017"}},
{"id":"13311","name":"Château de Mercuès","address":{"address_locality":"Mercuès","postal_code":"46090"}},
{"id":"24998","name":"Le Restaurant Des Rois","address":{"address_locality":"Beaulieu-sur-Mer","postal_code":"06310"}},
{"id":"2934","name":"Auberge du Bon Laboureur","address":{"address_locality":"Chenonceaux","postal_code":"37150"}},
{"id":"38024","name":"La Nouvelle Auberge","address":{"address_locality":"Wihr-au-Val","postal_code":"68230"}},
{"id":"7872","name":"Le Pavillon des Boulevards - Denis Franc","address":{"address_locality":"Bordeaux","postal_code":"33000"}},
{"id":"32118","name":"Le Musigny","address":{"address_locality":"Valenciennes","postal_code":"59300"}},
{"id":"310829","name":"Dominique Bouchet","address":{"address_locality":"Paris","postal_code":"75008"}},
{"id":"5109","name":"Le Magasin aux Vivres","address":{"address_locality":"Metz","postal_code":"57000"}},
{"id":"289175","name":"La Petite Maison de Pierre","address":{"address_locality":"Bordeaux","postal_code":"33000"}},
{"id":"277471","name":"Alain Llorca","address":{"address_locality":"La Colle-sur-Loup","postal_code":"06480"}},
{"id":"8976","name":"L'Abeille - Shangri-La Hotel, Paris","address":{"address_locality":"Paris","postal_code":"75016"}},
{"id":"25901","name":"Hostellerie de l'Abbaye de la Celle","address":{"address_locality":"La Celle","postal_code":"83170"}},
{"id":"77134","name":"Mickaël Féval","address":{"address_locality":"Aix-en-Provence","postal_code":"13100"}},
{"id":"15413","name":"Les Trois Dômes - Christian Lherm","address":{"address_locality":"Lyon","postal_code":"69002"}},
{"id":"206163","name":"Julien Binz","address":{"address_locality":"Ammerschwihr","postal_code":"68770"}},
{"id":"327881","name":"La Matelote","address":{"address_locality":"Boulogne-sur-Mer","postal_code":"62200"}},
{"id":"35192","name":"Hôtel Restaurant La Matelote","address":{"address_locality":"Boulogne-sur-Mer","postal_code":"62200"}},
{"id":"12792","name":"La Côte Saint-Jacques","address":{"address_locality":"Joigny","postal_code":"89300"}},
{"id":"128","name":"Restaurant Hervé Busset","address":{"address_locality":"Conques","postal_code":"12320"}},
{"id":"15264","name":"Hôtel Restaurant Yoann CONTE, bord du lac","address":{"address_locality":"Veyrier-du-Lac","postal_code":"74290"}},
{"id":"5935","name":"Le Grand Cerf","address":{"address_locality":"Villers-Allerand","postal_code":"51500"}},
{"id":"18939","name":"Le Bistro des Saveurs","address":{"address_locality":"Obernai","postal_code":"67210"}},
{"id":"10427","name":"Auberge les Morainières","address":{"address_locality":"Jongieux","postal_code":"73170"}},
{"id":"12601","name":"Hôtel Restaurant Le Cerf - Michel HUSSER","address":{"address_locality":"Marlenheim","postal_code":"67520"}},
{"id":"42187","name":"La Promenade","address":{"address_locality":"Verfeil","postal_code":"31590"}},
{"id":"2788","name":"La Villa Madie - Dimitri Droisneau","address":{"address_locality":"Cassis","postal_code":"13260"}},
{"id":"3592","name":"Buerehiesel - Eric Westermann","address":{"address_locality":"Strasbourg","postal_code":"67000"}},
{"id":"73961","name":"Le George - Four Seasons Hôtel George V","address":{"address_locality":"Paris","postal_code":"75008"}},
{"id":"44000","name":"Logis de la Cadène","address":{"address_locality":"Saint-Émilion","postal_code":"33330"}},
{"id":"46721","name":"Neige d'été","address":{"address_locality":"Paris","postal_code":"75015"}},
{"id":"5487","name":"Château de Mirambeau","address":{"address_locality":"Mirambeau","postal_code":"17150"}},
{"id":"75043","name":"Prairial","address":{"address_locality":"Lyon","postal_code":"69001"}},
{"id":"26746","name":"La Pergola - Le Mas Candille","address":{"address_locality":"Mougins","postal_code":"06250"}},
{"id":"3521","name":"Le Candille - Le Mas Candille","address":{"address_locality":"Mougins","postal_code":"06250"}},
{"id":"3485","name":"Manoir de la Boulaie - Laurent Saudeau","address":{"address_locality":"Haute-Goulaine","postal_code":"44115"}},
{"id":"272593","name":"MONTÉE","address":{"address_locality":"Paris","postal_code":"75014"}},
{"id":"11050","name":"Le Cloître","address":{"address_locality":"Mane","postal_code":"04300"}},
{"id":"317587","name":"Pertinence","address":{"address_locality":"Paris","postal_code":"75007"}},
{"id":"3304","name":"Loiseau des Vignes","address":{"address_locality":"Beaune","postal_code":"21200"}},
{"id":"16314","name":"Les Fresques - Château des Vigiers","address":{"address_locality":"Monestier","postal_code":"24240"}},
{"id":"275457","name":"Emporio Armani Ristorante","address":{"address_locality":"Paris","postal_code":"75006"}},
{"id":"8760","name":"Saturne","address":{"address_locality":"Paris","postal_code":"75002"}},
{"id":"3018","name":"Domaine d'Auriac","address":{"address_locality":"Carcassonne","postal_code":"11000"}},
{"id":"5305","name":"L'Auberge Basque","address":{"address_locality":"Saint-Pée-sur-Nivelle","postal_code":"64310"}},
{"id":"2591","name":"La Table des Merville - Thierry Merville","address":{"address_locality":"Castanet-Tolosan","postal_code":"31320"}},
{"id":"71542","name":"Au Crocodile","address":{"address_locality":"Strasbourg","postal_code":"67000"}},
{"id":"4546","name":"Auberge des Saints Pères","address":{"address_locality":"Aulnay-sous-Bois","postal_code":"93600"}},
{"id":"60775","name":"La Table du Connétable","address":{"address_locality":"Chantilly","postal_code":"60500"}},
{"id":"2828","name":"Le Chiberta - Stéphane Laruelle - Guy Savoy","address":{"address_locality":"Paris","postal_code":"75008"}},
{"id":"62590","name":"Le Pont de l'Ouysse","address":{"address_locality":"Lacave","postal_code":"46200"}},
{"id":"2819","name":"Les Hautes Roches","address":{"address_locality":"Rochecorbon","postal_code":"37210"}},
{"id":"53046","name":"Sur Mesure  par Thierry Marx - Mandarin Oriental, Paris","address":{"address_locality":"Paris","postal_code":"75001"}},
{"id":"69372","name":"Carré des Feuillants - Alain Dutournier","address":{"address_locality":"Paris","postal_code":"75001"}},
{"id":"687","name":"L'Oustau de Baumanière - Jean André Charial","address":{"address_locality":"Les Baux-de-Provence","postal_code":"13520"}},
{"id":"29826","name":"Loiseau des Ducs","address":{"address_locality":"Dijon","postal_code":"21000"}},
{"id":"58408","name":"La Table du 11","address":{"address_locality":"Versailles","postal_code":"78000"}},
{"id":"209577","name":"Restaurant H","address":{"address_locality":"Paris","postal_code":"75004"}},
{"id":"2579","name":"L'Auberge de la Charme","address":{"address_locality":"Prenois","postal_code":"21370"}},
{"id":"23454","name":"Helen","address":{"address_locality":"Paris","postal_code":"75008"}},
{"id":"2310","name":"Auberge du Cheval Blanc","address":{"address_locality":"Lembach","postal_code":"67510"}},
{"id":"30379","name":"Jin","address":{"address_locality":"Paris","postal_code":"75001"}},
{"id":"26460","name":"Ivan Vautier","address":{"address_locality":"Caen","postal_code":"14000"}},
{"id":"26494","name":"Restaurant La Barbacane","address":{"address_locality":"Carcassonne","postal_code":"11000"}},
{"id":"4294","name":"La Maison dans le Parc","address":{"address_locality":"Nancy","postal_code":"54000"}},
{"id":"6794","name":"La Mère Brazier - Mathieu Viannay","address":{"address_locality":"Lyon","postal_code":"69001"}},
{"id":"27058","name":"Initial","address":{"address_locality":"Caen","postal_code":"14000"}},
{"id":"6792","name":"Le Panoramique du Domaine de la Corniche","address":{"address_locality":"Rolleboise","postal_code":"78270"}},
{"id":"26352","name":"Le Moulin de l'Abbaye","address":{"address_locality":"Brantôme","postal_code":"24310"}},
{"id":"682","name":"L'Oasis - Stéphane Raimbault","address":{"address_locality":"La Napoule","postal_code":"06210"}},
{"id":"10332","name":"Le Refuge des Gourmets","address":{"address_locality":"Machilly","postal_code":"74140"}},
{"id":"24272","name":"Saint James Paris","address":{"address_locality":"Paris","postal_code":"75116"}},
{"id":"15068","name":"Au Vieux Couvent - Alexis Albrecht","address":{"address_locality":"Rhinau","postal_code":"67860"}},
{"id":"9759","name":"Le Carrousel","address":{"address_locality":"Maringues","postal_code":"63350"}},
{"id":"294745","name":"Le Fanal - Pascal Borrell","address":{"address_locality":"Banyuls-sur-Mer","postal_code":"66650"}},
{"id":"23255","name":"Auberge de la Tour","address":{"address_locality":"Marcolès","postal_code":"15220"}},
{"id":"6765","name":"L'Auberge de la Diligence","address":{"address_locality":"Loiré","postal_code":"49440"}},
{"id":"122","name":"La Grande Cascade - Frédéric Robert","address":{"address_locality":"Paris","postal_code":"75016"}},
{"id":"5632","name":"La Licorne Royale","address":{"address_locality":"Lyons-la-Forêt","postal_code":"27480"}},
{"id":"4988","name":"Le Jardin des Remparts","address":{"address_locality":"Beaune","postal_code":"21200"}},
{"id":"5756","name":"Palm Beach","address":{"address_locality":"Ajaccio","postal_code":"20000"}},
{"id":"344379","name":"Astrance","address":{"address_locality":"Paris","postal_code":"75016"}},
{"id":"132","name":"Le Relais des Moines","address":{"address_locality":"Les Arcs","postal_code":"83460"}},
{"id":"66992","name":"Le Stelsia - Le Jasmin","address":{"address_locality":"Saint-Sylvestre-sur-Lot","postal_code":"47140"}},
{"id":"6986","name":"Alexandre - Michel Kayser","address":{"address_locality":"Garons","postal_code":"30128"}},
{"id":"301377","name":"Le Chantecler - Hôtel Negresco","address":{"address_locality":"Nice","postal_code":"06000"}},
{"id":"35146","name":"L'Atelier de Joël Robuchon Etoile","address":{"address_locality":"Paris","postal_code":"75008"}},
{"id":"2971","name":"Maison Kieny","address":{"address_locality":"Riedisheim","postal_code":"68400"}},
{"id":"1923","name":"Agapé","address":{"address_locality":"Paris","postal_code":"75017"}},
{"id":"3507","name":"Hostellerie de Levernois : Le Gastronomique","address":{"address_locality":"Levernois","postal_code":"21200"}},
{"id":"65607","name":"Le Château de Sable","address":{"address_locality":"Porspoder","postal_code":"29840"}},
{"id":"77571","name":"Le Domaine de Manville - La Table","address":{"address_locality":"Les Baux-de-Provence","postal_code":"13520"}},
{"id":"8933","name":"Les Clefs d'Argent","address":{"address_locality":"Mont-de-Marsan","postal_code":"40000"}},
{"id":"8719","name":"Ô Saveurs","address":{"address_locality":"Rouffiac-Tolosan","postal_code":"31180"}},
{"id":"9611","name":"Le Radio","address":{"address_locality":"Chamalières","postal_code":"63400"}},
{"id":"22878","name":"Domaine de Clairefontaine","address":{"address_locality":"Chonas-l'Amballan","postal_code":"38121"}},
{"id":"2970","name":"La Renaissance","address":{"address_locality":"Argentan","postal_code":"61200"}},
{"id":"3997","name":"Têtedoie - Christian Têtedoie","address":{"address_locality":"Lyon","postal_code":"69005"}},
{"id":"269053","name":"Ze Kitchen Galerie","address":{"address_locality":"Paris","postal_code":"75006"}},
{"id":"35732","name":"Hôtel - Restaurant Anne De Bretagne","address":{"address_locality":"La Plaine-sur-Mer","postal_code":"44770"}},
{"id":"26112","name":"Le 39V Paris - Frédéric Vardon","address":{"address_locality":"Paris","postal_code":"75008"}},
{"id":"9350","name":"Le Petit Nice Passedat - Gérald Passedat","address":{"address_locality":"Marseille","postal_code":"13007"}},
{"id":"46885","name":"Le Gambetta","address":{"address_locality":"Saumur","postal_code":"49400"}},
{"id":"26469","name":"Restaurant Cyril Attrazic - Chez Camillou","address":{"address_locality":"Aumont-Aubrac","postal_code":"48130"}},
{"id":"73740","name":"La Rotonde - Domaine le Lyon Vert","address":{"address_locality":"La Tour-de-Salvagny","postal_code":"69890"}}]
