{"name": "Ed.Em", "zipCode": "21190", "nbStars": "1"},
{"name": "Alcyone", "zipCode": "13002", "nbStars": "1"},
{"name": "Sylvestre", "zipCode": "75007", "nbStars": "2"},
{"name": "Flocons de Sel", "zipCode": "74120", "nbStars": "3"},
{"name": "Hostellerie de Plaisance", "zipCode": "33330", "nbStars": "2"},
{"name": "Alliance", "zipCode": "75005", "nbStars": "1"},
{"name": "Les Terrasses de Lyon", "zipCode": "69005", "nbStars": "1"},
{"name": "Le Strasbourg", "zipCode": "57230", "nbStars": "1"},
{"name": "L'Épuisette", "zipCode": "13007", "nbStars": "1"},
{"name": "Antoine", "zipCode": "75116", "nbStars": "1"},
{"name": "Les Trois Soleils de Montal", "zipCode": "46400", "nbStars": "1"},
{"name": "Le Carré d'Alethius", "zipCode": "07800", "nbStars": "1"},
{"name": "La Bastide St-Antoine", "zipCode": "06130", "nbStars": "1"},
{"name": "L'Esquisse", "zipCode": "74000", "nbStars": "1"},
{"name": "Maison Jeunet", "zipCode": "39600", "nbStars": "2"},
{"name": "Casadelmar", "zipCode": "20137", "nbStars": "2"},
{"name": "Aida", "zipCode": "75007", "nbStars": "1"},
{"name": "La Cachette", "zipCode": "26000", "nbStars": "1"},
{"name": "Auberge à la Bonne Idée", "zipCode": "60350", "nbStars": "1"},
{"name": "Le Beaulieu", "zipCode": "72000", "nbStars": "1"},
{"name": "Le Belvédère", "zipCode": "12340", "nbStars": "1"},
{"name": "Christopher Coutanceau", "zipCode": "17000", "nbStars": "2"},
{"name": "Une Île", "zipCode": "49000", "nbStars": "1"},
{"name": "Étincelles - La Gentilhommière", "zipCode": "24440", "nbStars": "1"},
{"name": "Val d'Auge", "zipCode": "59910", "nbStars": "1"},
{"name": "I Salti", "zipCode": "20226", "nbStars": "1"},
{"name": "La Ville Blanche", "zipCode": "22300", "nbStars": "1"},
{"name": "Garopapilles", "zipCode": "33000", "nbStars": "1"},
{"name": "Palégrié", "zipCode": "38250", "nbStars": "1"},
{"name": "Elsa", "zipCode": "06190", "nbStars": "1"},
{"name": "Pèir", "zipCode": "84220", "nbStars": "1"},
{"name": "Le Sérac", "zipCode": "74170", "nbStars": "1"},
{"name": "L'Axel", "zipCode": "77300", "nbStars": "1"},
{"name": "Le Prieuré", "zipCode": "42820", "nbStars": "1"},
{"name": "Rodolphe", "zipCode": "76000", "nbStars": "1"},
{"name": "Pierre", "zipCode": "71000", "nbStars": "1"},
{"name": "L'Étang du Moulin", "zipCode": "25210", "nbStars": "1"},
{"name": "Auberge du Paradis", "zipCode": "71570", "nbStars": "1"},
{"name": "La Merise", "zipCode": "67580", "nbStars": "1"},
{"name": "Racine", "zipCode": "51100", "nbStars": "1"},
{"name": "Tour d'Argent", "zipCode": "75005", "nbStars": "1"},
{"name": "1920", "zipCode": "74120", "nbStars": "2"},
{"name": "La Grignotière", "zipCode": "59590", "nbStars": "1"},
{"name": "L'Aubergade", "zipCode": "80480", "nbStars": "1"},
{"name": "La Table des Cordeliers", "zipCode": "32100", "nbStars": "1"},
{"name": "Stéphane Carbone", "zipCode": "14000", "nbStars": "1"},
{"name": "Le Clos St-Pierre", "zipCode": "06650", "nbStars": "1"},
{"name": "Sushi B", "zipCode": "75002", "nbStars": "1"},
{"name": "Le Prieuré", "zipCode": "30400", "nbStars": "1"},
{"name": "Le Moulin des Quatre Saisons", "zipCode": "72200", "nbStars": "1"},
{"name": "Château du Mont Joly", "zipCode": "39100", "nbStars": "1"},
{"name": "Haut Bonheur de la Table", "zipCode": "59670", "nbStars": "1"},
{"name": "Dan B. - La Table de Ventabren", "zipCode": "13122", "nbStars": "1"},
{"name": "La Marine", "zipCode": "50270", "nbStars": "1"},
{"name": "Les Trois Rochers", "zipCode": "29120", "nbStars": "1"},
{"name": "Le Bec au Cauchois", "zipCode": "76540", "nbStars": "1"},
{"name": "Château de Vauchoux", "zipCode": "70170", "nbStars": "1"},
{"name": "Le Gourmet de Sèze", "zipCode": "69006", "nbStars": "1"},
{"name": "Ima", "zipCode": "35000", "nbStars": "1"},
{"name": "L'Essentiel", "zipCode": "24000", "nbStars": "1"},
{"name": "Le Jules Verne", "zipCode": "75007", "nbStars": "1"},
{"name": "ES", "zipCode": "75007", "nbStars": "1"},
{"name": "Relais Louis XIII", "zipCode": "75006", "nbStars": "1"},
{"name": "Quinsou", "zipCode": "75006", "nbStars": "1"},
{"name": "Le Pêché Gourmand", "zipCode": "05100", "nbStars": "1"},
{"name": "Stéphane Tournié - Les Jardins de l'Opéra", "zipCode": "31000", "nbStars": "1"},
{"name": "Gordon Ramsay au Trianon", "zipCode": "78000", "nbStars": "1"},
{"name": "Domaine des Séquoias", "zipCode": "38300", "nbStars": "1"},
{"name": "La Vague d'Or", "zipCode": "83990", "nbStars": "3"},
{"name": "Le Grand Restaurant - Jean-François Piège", "zipCode": "75008", "nbStars": "2"},
{"name": "Le Meurice Alain Ducasse", "zipCode": "75001", "nbStars": "2"},
{"name": "U Santa Marina", "zipCode": "20137", "nbStars": "1"},
{"name": "Garance", "zipCode": "75007", "nbStars": "1"},
{"name": "Le Pousse-Pied", "zipCode": "85360", "nbStars": "1"},
{"name": "La Marande", "zipCode": "71260", "nbStars": "1"},
{"name": "Table - Bruno Verjus", "zipCode": "75012", "nbStars": "1"},
{"name": "Le Saint-James", "zipCode": "33270", "nbStars": "1"},
{"name": "Rackham", "zipCode": "29680", "nbStars": "1"},
{"name": "Ken Kawasaki", "zipCode": "75018", "nbStars": "1"},
{"name": "Jérémy Galvan", "zipCode": "69005", "nbStars": "1"},
{"name": "Arpège", "zipCode": "75007", "nbStars": "3"},
{"name": "Mon Plaisir", "zipCode": "25190", "nbStars": "1"},
{"name": "Au 14 Février", "zipCode": "", "nbStars": "1"},
{"name": "Le Marcq", "zipCode": "59700", "nbStars": "1"},
{"name": "Auberge Tiegezh", "zipCode": "56380", "nbStars": "1"},
{"name": "L'Odas", "zipCode": "76000", "nbStars": "1"},
{"name": "L'Océan", "zipCode": "64500", "nbStars": "1"},
{"name": "La Table Breizh Café", "zipCode": "35260", "nbStars": "1"},
{"name": "La Galinette", "zipCode": "66000", "nbStars": "1"},
{"name": "L'Olivier", "zipCode": "83990", "nbStars": "1"},
{"name": "Brikéténia", "zipCode": "64210", "nbStars": "1"},
{"name": "Le Pily", "zipCode": "50100", "nbStars": "1"},
{"name": "L'Éveil des Sens", "zipCode": "53100", "nbStars": "1"},
{"name": "Divellec", "zipCode": "75007", "nbStars": "1"},
{"name": "Les Ducs de Lorraine", "zipCode": "88000", "nbStars": "1"},
{"name": "1217", "zipCode": "69620", "nbStars": "1"},
{"name": "L'Écrin", "zipCode": "75008", "nbStars": "1"},
{"name": "La Gloire", "zipCode": "45200", "nbStars": "1"},
{"name": "Château Blanchard", "zipCode": "42140", "nbStars": "1"},
{"name": "Meurin", "zipCode": "62350", "nbStars": "2"},
{"name": "Jean-Claude Leclerc", "zipCode": "63000", "nbStars": "1"},
{"name": "Auberge Le Prieuré", "zipCode": "47310", "nbStars": "1"},
{"name": "Auberge du Dun", "zipCode": "76740", "nbStars": "1"},
{"name": "La Table de la Ferme", "zipCode": "20100", "nbStars": "1"},
{"name": "Clovis", "zipCode": "06140", "nbStars": "1"},
{"name": "La Promenade", "zipCode": "37350", "nbStars": "1"},
{"name": "Le Neuvième Art", "zipCode": "69006", "nbStars": "2"},
{"name": "Le Pavillon", "zipCode": "62520", "nbStars": "1"},
{"name": "Le Camélia", "zipCode": "78380", "nbStars": "1"},
{"name": "Château de Pray", "zipCode": "37400", "nbStars": "1"},
{"name": "Thierry Drapeau", "zipCode": "85260", "nbStars": "2"},
{"name": "Le Clocher des Pères", "zipCode": "73130", "nbStars": "1"},
{"name": "SEPT", "zipCode": "31000", "nbStars": "1"},
{"name": "Auberge Frankenbourg", "zipCode": "67730", "nbStars": "1"},
{"name": "Comice", "zipCode": "75016", "nbStars": "1"},
{"name": "Jean Sulpice", "zipCode": "74290", "nbStars": "2"},
{"name": "L'Arôme", "zipCode": "75008", "nbStars": "1"},
{"name": "Le Violon d'Ingres", "zipCode": "75007", "nbStars": "1"},
{"name": "Le Baudelaire", "zipCode": "75001", "nbStars": "1"},
{"name": "La Table d'Eugène", "zipCode": "75018", "nbStars": "1"},
{"name": "L'Aromate", "zipCode": "06000", "nbStars": "1"},
{"name": "L'Impertinent", "zipCode": "64200", "nbStars": "1"},
{"name": "Le 1947", "zipCode": "73120", "nbStars": "3"},
{"name": "À Contre Sens", "zipCode": "14000", "nbStars": "1"},
{"name": "Les Climats", "zipCode": "75007", "nbStars": "1"},
{"name": "La Table de la Bergerie", "zipCode": "49380", "nbStars": "1"},
{"name": "David Toutain", "zipCode": "75007", "nbStars": "1"},
{"name": "La Table by La Villa", "zipCode": "20260", "nbStars": "1"},
{"name": "Xavier Mathieu", "zipCode": "84220", "nbStars": "1"},
{"name": "1741", "zipCode": "67000", "nbStars": "1"},
{"name": "Septime", "zipCode": "75011", "nbStars": "1"},
{"name": "Le Bon Accueil", "zipCode": "25160", "nbStars": "1"},
{"name": "Ithurria", "zipCode": "64250", "nbStars": "1"},
{"name": "La Table d'Uzès", "zipCode": "30700", "nbStars": "1"},
{"name": "Auberge de l'Ill", "zipCode": "68970", "nbStars": "3"},
{"name": "Kei", "zipCode": "75001", "nbStars": "2"},
{"name": "L'Émulsion", "zipCode": "38080", "nbStars": "1"},
{"name": "Pierre Reboul", "zipCode": "13546", "nbStars": "1"},
{"name": "Azimut", "zipCode": "73120", "nbStars": "1"},
{"name": "Mavrommatis", "zipCode": "75005", "nbStars": "1"},
{"name": "Pic", "zipCode": "26000", "nbStars": "3"},
{"name": "Les Cèdres", "zipCode": "26600", "nbStars": "2"},
{"name": "Jean Chauvel", "zipCode": "92100", "nbStars": "1"},
{"name": "L'Atelier Yssoirien", "zipCode": "63500", "nbStars": "1"},
{"name": "Assiette Champenoise", "zipCode": "51430", "nbStars": "3"},
{"name": "Apicius", "zipCode": "63000", "nbStars": "1"},
{"name": "L'Atelier de Jean-Luc Rabanel", "zipCode": "13200", "nbStars": "2"},
{"name": "Le Favre d'Anne", "zipCode": "49000", "nbStars": "1"},
{"name": "Étude", "zipCode": "75016", "nbStars": "1"},
{"name": "Le Musigny", "zipCode": "59300", "nbStars": "1"},
{"name": "Auberge du Vert Mont", "zipCode": "59299", "nbStars": "1"},
{"name": "L'Auberge de Bagatelle", "zipCode": "72000", "nbStars": "1"},
{"name": "Le Gabriel", "zipCode": "75008", "nbStars": "2"},
{"name": "La Madeleine", "zipCode": "89100", "nbStars": "1"},
{"name": "La Maison de Bournissac", "zipCode": "13550", "nbStars": "1"},
{"name": "Le France", "zipCode": "25130", "nbStars": "1"},
{"name": "Le Kintessence", "zipCode": "73120", "nbStars": "2"},
{"name": "Le Pré du Moulin", "zipCode": "84830", "nbStars": "1"},
{"name": "L'Escarbille", "zipCode": "92190", "nbStars": "1"},
{"name": "Le Corot", "zipCode": "92410", "nbStars": "1"},
{"name": "Guy Lassausaie", "zipCode": "69380", "nbStars": "2"},
{"name": "Miraflores", "zipCode": "69006", "nbStars": "1"},
{"name": "La Nouvelle Auberge", "zipCode": "68230", "nbStars": "1"},
{"name": "G.a. au Manoir de Rétival", "zipCode": "76490", "nbStars": "1"},
{"name": "Logis de la Cadène", "zipCode": "33330", "nbStars": "1"},
{"name": "Aux Pesked", "zipCode": "22000", "nbStars": "1"},
{"name": "Mickaël Féval", "zipCode": "13100", "nbStars": "1"},
{"name": "La Table d'Hôtes - Le Quatrième Mur", "zipCode": "33000", "nbStars": "1"},
{"name": "La Côte Saint-Jacques", "zipCode": "89300", "nbStars": "2"},
{"name": "La Robe", "zipCode": "85600", "nbStars": "1"},
{"name": "Louison", "zipCode": "13610", "nbStars": "1"},
{"name": "Le Cerf", "zipCode": "67520", "nbStars": "1"},
{"name": "Domaine des Hauts de Loire", "zipCode": "41150", "nbStars": "2"},
{"name": "Alain Llorca", "zipCode": "06480", "nbStars": "1"},
{"name": "Serge Vieira", "zipCode": "15110", "nbStars": "2"},
{"name": "Auberge du Cellier", "zipCode": "66720", "nbStars": "1"},
{"name": "L'Ambroisie", "zipCode": "75004", "nbStars": "3"},
{"name": "Lou Cigalon-Maison Martin", "zipCode": "06560", "nbStars": "1"},
{"name": "Le Bistro des Saveurs", "zipCode": "67210", "nbStars": "1"},
{"name": "L'Abeille", "zipCode": "75016", "nbStars": "2"},
{"name": "La Closerie", "zipCode": "84240", "nbStars": "1"},
{"name": "Hostellerie de l'Abbaye de la Celle", "zipCode": "83170", "nbStars": "1"},
{"name": "Château d'Adoménil", "zipCode": "54300", "nbStars": "1"},
{"name": "Le Grand Cerf", "zipCode": "51500", "nbStars": "1"},
{"name": "Le Farçon", "zipCode": "73125", "nbStars": "1"},
{"name": "Yoann Conte", "zipCode": "74290", "nbStars": "2"},
{"name": "Julien Binz", "zipCode": "68770", "nbStars": "1"},
{"name": "La Ribaudière", "zipCode": "16200", "nbStars": "1"},
{"name": "Montée", "zipCode": "75014", "nbStars": "1"},
{"name": "La Table des Blot - Auberge du Château", "zipCode": "78720", "nbStars": "1"},
{"name": "Le Parc Les Crayères", "zipCode": "51100", "nbStars": "2"},
{"name": "Pertinence", "zipCode": "75007", "nbStars": "1"},
{"name": "Le Montgomerie", "zipCode": "73120", "nbStars": "2"},
{"name": "Le Jardin des Plumes", "zipCode": "27620", "nbStars": "1"},
{"name": "Hostellerie du Rosenmeer", "zipCode": "67560", "nbStars": "1"},
{"name": "Le George", "zipCode": "75008", "nbStars": "1"},
{"name": "Les Fresques", "zipCode": "74500", "nbStars": "1"},
{"name": "Armani Ristorante", "zipCode": "75006", "nbStars": "1"},
{"name": "Hervé Busset", "zipCode": "12320", "nbStars": "1"},
{"name": "La Table des Merville", "zipCode": "31320", "nbStars": "1"},
{"name": "Les Fresques", "zipCode": "24240", "nbStars": "1"},
{"name": "L'Auberge Basque", "zipCode": "64310", "nbStars": "1"},
{"name": "Saturne", "zipCode": "75002", "nbStars": "1"},
{"name": "La Roya", "zipCode": "20217", "nbStars": "1"},
{"name": "Le Cerisier", "zipCode": "62840", "nbStars": "1"},
{"name": "Relais de la Poste", "zipCode": "40140", "nbStars": "2"},
{"name": "La Fourchette des Ducs", "zipCode": "67210", "nbStars": "2"},
{"name": "Alan Geaam", "zipCode": "75016", "nbStars": "1"},
{"name": "La Réserve Rimbaud", "zipCode": "34000", "nbStars": "1"},
{"name": "Les Chênes Verts", "zipCode": "83690", "nbStars": "1"},
{"name": "La Petite Maison de Cucuron", "zipCode": "84160", "nbStars": "1"},
{"name": "SaQuaNa", "zipCode": "14600", "nbStars": "2"},
{"name": "Le Cloître", "zipCode": "04300", "nbStars": "1"},
{"name": "Akrame", "zipCode": "75008", "nbStars": "1"},
{"name": "Domaine d'Auriac", "zipCode": "11000", "nbStars": "1"},
{"name": "Le Millénaire", "zipCode": "51100", "nbStars": "1"},
{"name": "Flaveurs", "zipCode": "26000", "nbStars": "1"},
{"name": "L'Hysope", "zipCode": "17220", "nbStars": "1"},
{"name": "Auberge des Saints Pères", "zipCode": "93600", "nbStars": "1"},
{"name": "Loiseau des Vignes", "zipCode": "21200", "nbStars": "1"},
{"name": "Neige d'Été", "zipCode": "75015", "nbStars": "1"},
{"name": "Le Quincangrogne", "zipCode": "77400", "nbStars": "1"},
{"name": "Le Brittany", "zipCode": "29681", "nbStars": "1"},
{"name": "Roscanvec", "zipCode": "56000", "nbStars": "1"},
{"name": "Le Cercle", "zipCode": "18000", "nbStars": "1"},
{"name": "Transparence "La Table de Patrick Fréchin"", "zipCode": "54000", "nbStars": "1"},
{"name": "Le Puits du Trésor", "zipCode": "11600", "nbStars": "1"},
{"name": "Le Chiquito", "zipCode": "95540", "nbStars": "1"},
{"name": "Auberge de la Brie", "zipCode": "77860", "nbStars": "1"},
{"name": "L'Atelier du Peintre", "zipCode": "68000", "nbStars": "1"},
{"name": "En Pleine Nature", "zipCode": "31130", "nbStars": "1"},
{"name": "Le Skiff Club", "zipCode": "33260", "nbStars": "1"},
{"name": "Le P'tit Polyte", "zipCode": "38860", "nbStars": "1"},
{"name": "Épicure", "zipCode": "75008", "nbStars": "3"},
{"name": "Jean-Luc Tartarin", "zipCode": "76600", "nbStars": "2"},
{"name": "Le Pressoir", "zipCode": "56890", "nbStars": "1"},
{"name": "Meulien", "zipCode": "71700", "nbStars": "1"},
{"name": "La Table", "zipCode": "59000", "nbStars": "1"},
{"name": "La Tour des Vents", "zipCode": "24240", "nbStars": "1"},
{"name": "Au Déjeuner de Sousceyrac", "zipCode": "46190", "nbStars": "1"},
{"name": "Maison Lameloise", "zipCode": "71150", "nbStars": "3"},
{"name": "Auberge de l'Abbaye", "zipCode": "01500", "nbStars": "1"},
{"name": "Le Roc Alto", "zipCode": "05350", "nbStars": "1"},
{"name": "Les Bacchanales", "zipCode": "06140", "nbStars": "1"},
{"name": "Lamartine", "zipCode": "73370", "nbStars": "1"},
{"name": "Le Sénéchal", "zipCode": "12800", "nbStars": "1"},
{"name": "Le Gindreau", "zipCode": "46150", "nbStars": "2"},
{"name": "Py-r", "zipCode": "31000", "nbStars": "1"},
{"name": "Vieux Pont", "zipCode": "12390", "nbStars": "1"},
{"name": "L'Amaryllis", "zipCode": "71100", "nbStars": "1"},
{"name": "La Pyramide-Patrick Henriroux", "zipCode": "38200", "nbStars": "2"},
{"name": "L'Essentiel", "zipCode": "14800", "nbStars": "1"},
{"name": "Hostellerie la Montagne", "zipCode": "52330", "nbStars": "1"},
{"name": "Gavroche", "zipCode": "67000", "nbStars": "1"},
{"name": "Le Grand Cap", "zipCode": "11370", "nbStars": "1"},
{"name": "Table des Frères Ibarboure", "zipCode": "64210", "nbStars": "1"},
{"name": "La Table de La Butte", "zipCode": "29260", "nbStars": "1"},
{"name": "Le Puits St-Jacques", "zipCode": "32600", "nbStars": "2"},
{"name": "L'Orangerie", "zipCode": "75008", "nbStars": "1"},
{"name": "Prairial", "zipCode": "69001", "nbStars": "1"},
{"name": "Le Pavillon des Boulevards", "zipCode": "33000", "nbStars": "1"},
{"name": "Le Moulin d'Alotz", "zipCode": "64200", "nbStars": "1"},
{"name": "Dominique Bouchet", "zipCode": "75008", "nbStars": "1"},
{"name": "Sur Mesure par Thierry Marx", "zipCode": "75001", "nbStars": "2"},
{"name": "Carré des Feuillants", "zipCode": "75001", "nbStars": "2"},
{"name": "Au Souper Fin", "zipCode": "76690", "nbStars": "1"},
{"name": "J.-M. Pérochon", "zipCode": "85470", "nbStars": "1"},
{"name": "Au 14 Février", "zipCode": "36100", "nbStars": "1"},
{"name": "Côté Jardin", "zipCode": "45500", "nbStars": "1"},
{"name": "Loiseau des Ducs", "zipCode": "21000", "nbStars": "1"},
{"name": "La Table du 11", "zipCode": "78000", "nbStars": "1"},
{"name": "Les Hautes Roches", "zipCode": "37210", "nbStars": "1"},
{"name": "64° Le Restaurant", "zipCode": "68240", "nbStars": "2"},
{"name": "La Table de Chaintré", "zipCode": "71570", "nbStars": "1"},
{"name": "La Bastide de Capelongue", "zipCode": "84480", "nbStars": "2"},
{"name": "L'Amphitryon", "zipCode": "31770", "nbStars": "1"},
{"name": "Auberge du Cheval Blanc", "zipCode": "67510", "nbStars": "2"},
{"name": "La Matelote", "zipCode": "62200", "nbStars": "1"},
{"name": "Restaurant H", "zipCode": "75004", "nbStars": "1"},
{"name": "Les Berceaux", "zipCode": "51200", "nbStars": "1"},
{"name": "Le Moulin de la Gorce", "zipCode": "87800", "nbStars": "1"},
{"name": "La Table de Patrick Raingeard", "zipCode": "06360", "nbStars": "1"},
{"name": "Auguste", "zipCode": "75007", "nbStars": "1"},
{"name": "Le Belrose", "zipCode": "83580", "nbStars": "1"},
{"name": "Auberge La Pomme d'Api", "zipCode": "29250", "nbStars": "1"},
{"name": "Frédéric Doucet", "zipCode": "71120", "nbStars": "1"},
{"name": "La Barbacane", "zipCode": "11000", "nbStars": "1"},
{"name": "Ivan Vautier", "zipCode": "14000", "nbStars": "1"},
{"name": "Le Chiberta", "zipCode": "75008", "nbStars": "1"},
{"name": "Baumanière 1850", "zipCode": "73120", "nbStars": "1"},
{"name": "Laurent", "zipCode": "75008", "nbStars": "1"},
{"name": "L'Oustau de Baumanière", "zipCode": "13520", "nbStars": "2"},
{"name": "Maison Prévôt", "zipCode": "84300", "nbStars": "1"},
{"name": "Le Bistrot de Lagarde", "zipCode": "84400", "nbStars": "1"},
{"name": "La Licorne Royale", "zipCode": "27480", "nbStars": "1"},
{"name": "Astrance", "zipCode": "75016", "nbStars": "3"},
{"name": "La Marelle", "zipCode": "01960", "nbStars": "1"},
{"name": "Michel Chabran - La Grande Table", "zipCode": "26600", "nbStars": "1"},
{"name": "Le Raisin", "zipCode": "01190", "nbStars": "1"},
{"name": "La Table du Connétable", "zipCode": "60500", "nbStars": "1"},
{"name": "Pont de l'Ouysse", "zipCode": "46200", "nbStars": "1"},
{"name": "Au Crocodile", "zipCode": "67000", "nbStars": "1"},
{"name": "Frédéric Simonin", "zipCode": "75017", "nbStars": "1"},
{"name": "Auberge du Pont d'Acigné", "zipCode": "35530", "nbStars": "1"},
{"name": "Le Relais des Moines", "zipCode": "83460", "nbStars": "1"},
{"name": "La Marine", "zipCode": "85330", "nbStars": "2"},
{"name": "La Grenouillère", "zipCode": "62170", "nbStars": "2"},
{"name": "Le Kléber", "zipCode": "26400", "nbStars": "1"},
{"name": "L'Atelier de Joël Robuchon - Étoile", "zipCode": "75008", "nbStars": "1"},
{"name": "Au Vieux Couvent", "zipCode": "67860", "nbStars": "1"},
{"name": "MaSa", "zipCode": "92100", "nbStars": "1"},
{"name": "Auberge de la Tour", "zipCode": "15220", "nbStars": "1"},
{"name": "La Grande Cascade", "zipCode": "75016", "nbStars": "1"},
{"name": "Les Tables de Gaspard", "zipCode": "05600", "nbStars": "1"},
{"name": "Le Carrousel", "zipCode": "63350", "nbStars": "1"},
{"name": "Chapelle Saint-Martin", "zipCode": "87510", "nbStars": "1"},
{"name": "Likoké", "zipCode": "07140", "nbStars": "1"},
{"name": "Le Chantecler", "zipCode": "06000", "nbStars": "2"},
{"name": "La Maison d'à Côté", "zipCode": "41350", "nbStars": "1"},
{"name": "Auberge de la Diligence", "zipCode": "49440", "nbStars": "1"},
{"name": "Le Cap", "zipCode": "06230", "nbStars": "1"},
{"name": "Le Jasmin", "zipCode": "47140", "nbStars": "1"},
{"name": "La Coopérative", "zipCode": "66720", "nbStars": "1"},
{"name": "Le Saint-Estève", "zipCode": "13100", "nbStars": "1"},
{"name": "Raphaël Vionnet", "zipCode": "74200", "nbStars": "1"},
{"name": "Allium", "zipCode": "29000", "nbStars": "1"},
{"name": "Le Jardin des Remparts", "zipCode": "21200", "nbStars": "1"},
{"name": "Alexandre", "zipCode": "30128", "nbStars": "2"},
{"name": "Auberge de la Mine", "zipCode": "61450", "nbStars": "1"},
{"name": "Passage 53", "zipCode": "75002", "nbStars": "2"},
{"name": "Têtedoie", "zipCode": "69005", "nbStars": "1"},
{"name": "Palm Beach", "zipCode": "20000", "nbStars": "1"},
{"name": "Une Table au Sud", "zipCode": "13002", "nbStars": "1"},
{"name": "La Bonne Étape", "zipCode": "04160", "nbStars": "1"},
{"name": "Le Fanal", "zipCode": "66650", "nbStars": "1"},
{"name": "L'Aquarelle", "zipCode": "17920", "nbStars": "1"},
{"name": "L'Archeste", "zipCode": "75116", "nbStars": "1"},
{"name": "Pur' - Jean-François Rouquette", "zipCode": "75002", "nbStars": "1"},
{"name": "La Renaissance", "zipCode": "61200", "nbStars": "1"},
{"name": "Le Foch", "zipCode": "51100", "nbStars": "1"},
{"name": "La Rastègue", "zipCode": "83230", "nbStars": "1"},
{"name": "Les Clefs d'Argent", "zipCode": "40000", "nbStars": "1"},
{"name": "Hostellerie Jérôme", "zipCode": "06320", "nbStars": "2"},
{"name": "Restaurant de Lauzun", "zipCode": "34150", "nbStars": "1"},
{"name": "Le Pré - Xavier Beaudiment", "zipCode": "63830", "nbStars": "2"},
{"name": "Le 7ème Continent", "zipCode": "68170", "nbStars": "1"},
{"name": "Maison Christian Étienne", "zipCode": "84000", "nbStars": "1"},
{"name": "La Gourmandière - La Table d'Olivier", "zipCode": "56000", "nbStars": "1"},
{"name": "Le Pavé d'Auge", "zipCode": "14430", "nbStars": "1"},
{"name": "Le 39V", "zipCode": "75008", "nbStars": "1"},
{"name": "Alléno Paris au Pavillon Ledoyen", "zipCode": "75008", "nbStars": "3"},
{"name": "Le Taillevent", "zipCode": "75008", "nbStars": "2"},
{"name": "La Table de Manville", "zipCode": "13520", "nbStars": "1"},
{"name": "Maison Kieny", "zipCode": "68400", "nbStars": "1"},
{"name": "Aux Anges", "zipCode": "42300", "nbStars": "1"},
{"name": "Le Pré Catelan", "zipCode": "75016", "nbStars": "3"},
{"name": "Jérôme Brochot", "zipCode": "71300", "nbStars": "1"},
{"name": "Château de Mirambeau", "zipCode": "17150", "nbStars": "1"},
{"name": "La Grand'Vigne", "zipCode": "33650", "nbStars": "2"},
{"name": "Les Explorateurs", "zipCode": "73440", "nbStars": "1"},
{"name": "Le Lido", "zipCode": "20110", "nbStars": "1"},
{"name": "La Vieille Tour", "zipCode": "22190", "nbStars": "1"},
{"name": "Le Park 45", "zipCode": "06400", "nbStars": "1"},
{"name": "Faventia", "zipCode": "83440", "nbStars": "1"},
{"name": "La Voile", "zipCode": "83350", "nbStars": "1"},
{"name": "Le Prince Noir - Vivien Durand", "zipCode": "33310", "nbStars": "1"},
{"name": "Domaine de Clairefontaine", "zipCode": "38121", "nbStars": "1"},
{"name": "La Grande Maison de Bernard Magrez", "zipCode": "33000", "nbStars": "2"},
{"name": "Jin", "zipCode": "75001", "nbStars": "1"},
{"name": "L'Alchémille", "zipCode": "68240", "nbStars": "1"},
{"name": "Restaurant du Château", "zipCode": "24650", "nbStars": "1"},
{"name": "Le Carmin", "zipCode": "21200", "nbStars": "1"},
{"name": "Hostellerie de Levernois", "zipCode": "21200", "nbStars": "1"},
{"name": "Ze Kitchen Galerie", "zipCode": "75006", "nbStars": "1"},
{"name": "Le M", "zipCode": "29200", "nbStars": "1"},
{"name": "Anne de Bretagne", "zipCode": "44770", "nbStars": "2"},
{"name": "Le Lièvre Gourmand", "zipCode": "45000", "nbStars": "1"},
{"name": "Les Bories", "zipCode": "84220", "nbStars": "1"},
{"name": "Le Château de Sable", "zipCode": "29840", "nbStars": "1"},
{"name": "Agapé", "zipCode": "75017", "nbStars": "1"},
{"name": "Le Vivier", "zipCode": "84800", "nbStars": "1"},
{"name": "La Grange de Belle-Église", "zipCode": "60540", "nbStars": "1"},
{"name": "Radio", "zipCode": "63400", "nbStars": "1"},
{"name": "Les Terraillers", "zipCode": "06410", "nbStars": "1"},
{"name": "Ô Saveurs", "zipCode": "31180", "nbStars": "1"},
{"name": "Initial", "zipCode": "14000", "nbStars": "1"},
{"name": "Les Genêts", "zipCode": "85470", "nbStars": "1"},
{"name": "René et Maxime Meilleur", "zipCode": "73440", "nbStars": "3"},
{"name": "La Balette", "zipCode": "66190", "nbStars": "1"},
{"name": "Le Quinzième - Cyril Lignac", "zipCode": "75015", "nbStars": "1"},
{"name": "Copenhague", "zipCode": "75008", "nbStars": "1"},
{"name": "Le Georges", "zipCode": "28000", "nbStars": "1"},
{"name": "Domaine de Rochevilaine", "zipCode": "56190", "nbStars": "1"},
{"name": "JY'S", "zipCode": "68000", "nbStars": "2"},
{"name": "Maison Crouzil et Hôtel L'Écrin", "zipCode": "22130", "nbStars": "1"},
{"name": "Grand Hôtel du Lion d'Or", "zipCode": "41200", "nbStars": "1"},
{"name": "Le Grand Véfour", "zipCode": "75001", "nbStars": "2"},
{"name": "Entre Vigne et Garrigue", "zipCode": "30131", "nbStars": "1"},
{"name": "Le Castellaras", "zipCode": "83440", "nbStars": "1"},
{"name": "La Table du Gourmet", "zipCode": "68340", "nbStars": "1"},
{"name": "Restaurant du Palais Royal", "zipCode": "75001", "nbStars": "1"},
{"name": "L'Auberge de la Pomme", "zipCode": "27340", "nbStars": "1"},
{"name": "Quai des Saveurs", "zipCode": "57300", "nbStars": "1"},
{"name": "Albert 1er", "zipCode": "74400", "nbStars": "2"},
{"name": "Villa René Lalique", "zipCode": "67290", "nbStars": "2"},
{"name": "Atmosphères", "zipCode": "73370", "nbStars": "1"},
{"name": "Il Cortile", "zipCode": "68100", "nbStars": "1"},
{"name": "1131", "zipCode": "21360", "nbStars": "1"},
{"name": "Intuition", "zipCode": "50000", "nbStars": "1"},
{"name": "Il Carpaccio", "zipCode": "75008", "nbStars": "1"},
{"name": "Les Pêcheurs", "zipCode": "06600", "nbStars": "1"},
{"name": "La Bergerie", "zipCode": "63490", "nbStars": "1"},
{"name": "Hexagone", "zipCode": "75016", "nbStars": "1"},
{"name": "Le Pergolèse", "zipCode": "75116", "nbStars": "1"},
{"name": "Michel Sarran", "zipCode": "31000", "nbStars": "2"},
{"name": "Le Mascaret", "zipCode": "50560", "nbStars": "1"},
{"name": "Georges Blanc", "zipCode": "01540", "nbStars": "3"},
{"name": "Patrick Jeffroy", "zipCode": "29660", "nbStars": "2"},
{"name": "Le Champ des Lunes", "zipCode": "84360", "nbStars": "1"},
{"name": "Auberge St-Laurent", "zipCode": "68510", "nbStars": "1"},
{"name": "Le Grand Bleu", "zipCode": "24200", "nbStars": "1"},
{"name": "Aigue Marine", "zipCode": "22220", "nbStars": "1"},
{"name": "Auberge du Bon Laboureur", "zipCode": "37150", "nbStars": "1"},
{"name": "Terre-Mer", "zipCode": "56400", "nbStars": "1"},
{"name": "Le Clarence", "zipCode": "75008", "nbStars": "2"},
{"name": "Mariottat", "zipCode": "47000", "nbStars": "1"},
{"name": "En Marge", "zipCode": "31320", "nbStars": "1"},
{"name": "Pertica", "zipCode": "41100", "nbStars": "1"},
{"name": "L'Atlantide 1874 - Maison Guého", "zipCode": "44100", "nbStars": "1"},
{"name": "La Tour", "zipCode": "18300", "nbStars": "1"},
{"name": "Le Pot d'Étain", "zipCode": "90400", "nbStars": "1"},
{"name": "Le Domaine de la Corniche", "zipCode": "78270", "nbStars": "1"},
{"name": "Auberge de la Charme", "zipCode": "21370", "nbStars": "1"},
{"name": "Nakatani", "zipCode": "75007", "nbStars": "1"},
{"name": "La Lorraine", "zipCode": "57330", "nbStars": "1"},
{"name": "Benoit", "zipCode": "75004", "nbStars": "1"},
{"name": "Hostellerie Bérard", "zipCode": "83740", "nbStars": "1"},
{"name": "La Dame de Pic", "zipCode": "75001", "nbStars": "1"},
{"name": "Le Village", "zipCode": "78160", "nbStars": "1"},
{"name": "Fanny Rey & Jonathan Wahid", "zipCode": "13210", "nbStars": "1"},
{"name": "Gill", "zipCode": "76000", "nbStars": "2"},
{"name": "Apicius", "zipCode": "75008", "nbStars": "1"},
{"name": "L'Atelier de Gaztelur", "zipCode": "64200", "nbStars": "1"},
{"name": "Loiseau rive Gauche", "zipCode": "75007", "nbStars": "1"},
{"name": "La Gouesnière", "zipCode": "35350", "nbStars": "1"},
{"name": "Mathieu Pacaud - Histoires", "zipCode": "75016", "nbStars": "2"},
{"name": "Les Trois Dômes", "zipCode": "69002", "nbStars": "1"},
{"name": "Maximin Hellio", "zipCode": "14800", "nbStars": "1"},
{"name": "Auberge de l'Île Barbe", "zipCode": "69009", "nbStars": "1"},
{"name": "Helen", "zipCode": "75008", "nbStars": "1"},
{"name": "Kasbür", "zipCode": "67700", "nbStars": "1"},
{"name": "Le Coquillage", "zipCode": "35350", "nbStars": "1"},
{"name": "Le Magasin aux Vivres", "zipCode": "57000", "nbStars": "1"},
{"name": "La Chèvre d'Or", "zipCode": "06360", "nbStars": "2"},
{"name": "La Villa Madie", "zipCode": "13260", "nbStars": "2"},
{"name": "Le Patio", "zipCode": "33120", "nbStars": "1"},
{"name": "La Table de Franck Putelat", "zipCode": "11000", "nbStars": "2"},
{"name": "Les Tablettes de Jean-Louis Nomicos", "zipCode": "75016", "nbStars": "1"},
{"name": "Château de Mercuès", "zipCode": "46090", "nbStars": "1"},
{"name": "Les Rosiers", "zipCode": "64200", "nbStars": "1"},
{"name": "L'O des Vignes", "zipCode": "71960", "nbStars": "1"},
{"name": "Toya", "zipCode": "57380", "nbStars": "1"},
{"name": "St-James Paris", "zipCode": "75116", "nbStars": "1"},
{"name": "Les Jardins de l'Espadon", "zipCode": "75001", "nbStars": "1"},
{"name": "Le Petit Nice", "zipCode": "13007", "nbStars": "3"},
{"name": "Le Jardin de Benjamin", "zipCode": "83510", "nbStars": "1"},
{"name": "Maison Decoret", "zipCode": "03200", "nbStars": "1"},
{"name": "Le Bénaton", "zipCode": "21200", "nbStars": "1"},
{"name": "Le Refuge des Gourmets", "zipCode": "74140", "nbStars": "1"},
{"name": "Le Moulin de l'Abbaye", "zipCode": "24310", "nbStars": "1"},
{"name": "L'Oasis", "zipCode": "06210", "nbStars": "2"},
{"name": "La Maison dans le Parc", "zipCode": "54000", "nbStars": "1"},
{"name": "Mère Brazier", "zipCode": "69001", "nbStars": "2"},
{"name": "Le St-Placide", "zipCode": "35400", "nbStars": "1"},
{"name": "Henri et Joseph", "zipCode": "56100", "nbStars": "1"},
{"name": "Villa Archange", "zipCode": "06110", "nbStars": "2"},
{"name": "Umami", "zipCode": "67000", "nbStars": "1"},
{"name": "Auberge St-Walfrid", "zipCode": "57200", "nbStars": "1"},
{"name": "Auberge de Clochemerle", "zipCode": "69460", "nbStars": "1"},
{"name": "Maison Clovis", "zipCode": "69006", "nbStars": "1"},
{"name": "Dominique Bucaille", "zipCode": "04100", "nbStars": "1"},
{"name": "JAN", "zipCode": "06000", "nbStars": "1"},
{"name": "Le Pressoir d'Argent - Gordon Ramsay", "zipCode": "33000", "nbStars": "2"},
{"name": "Le Kaïku", "zipCode": "64500", "nbStars": "1"},
{"name": "La Passagère", "zipCode": "06160", "nbStars": "1"},
{"name": "Le Cinq", "zipCode": "75008", "nbStars": "3"},
{"name": "La Palme d'Or", "zipCode": "06400", "nbStars": "2"},
{"name": "Le Manoir du Lys", "zipCode": "61140", "nbStars": "1"},
{"name": "Takao Takano", "zipCode": "69006", "nbStars": "2"},
{"name": "Cyril Attrazic", "zipCode": "48130", "nbStars": "1"},
{"name": "Auberge St-Jean", "zipCode": "33420", "nbStars": "1"},
{"name": "La Rotonde", "zipCode": "69890", "nbStars": "1"},
{"name": "Pages", "zipCode": "75016", "nbStars": "1"},
{"name": "Le Passe Temps", "zipCode": "69006", "nbStars": "1"},
{"name": "Les Pyrénées", "zipCode": "64220", "nbStars": "1"},
{"name": "Le Chateaubriand", "zipCode": "75011", "nbStars": "1"},
{"name": "Les Loges", "zipCode": "69005", "nbStars": "1"},
{"name": "AM par Alexandre Mazzia", "zipCode": "13008", "nbStars": "1"},
{"name": "La Scène Thélème", "zipCode": "75017", "nbStars": "1"},
{"name": "Ar Men Du", "zipCode": "29920", "nbStars": "1"},
{"name": "L'Amphitryon", "zipCode": "56100", "nbStars": "1"},
{"name": "Gaya Rive Gauche par Pierre Gagnaire", "zipCode": "75007", "nbStars": "1"},
{"name": "Le St-Martin", "zipCode": "25200", "nbStars": "1"},
{"name": "Le Colombier", "zipCode": "76550", "nbStars": "1"},
{"name": "Les Bas-Rupts", "zipCode": "88400", "nbStars": "1"},
{"name": "Régis et Jacques Marcon", "zipCode": "43290", "nbStars": "3"},
{"name": "Jérôme Nutile - Le Mas de Boudan", "zipCode": "30000", "nbStars": "1"},
{"name": "Assa", "zipCode": "41000", "nbStars": "1"},
{"name": "Lucas Carton", "zipCode": "75008", "nbStars": "1"},
{"name": "Auberge Grand'Maison", "zipCode": "22530", "nbStars": "1"},
{"name": "Penati al Baretto", "zipCode": "75008", "nbStars": "1"},
{"name": "La Table d'Olivier", "zipCode": "19100", "nbStars": "1"},
{"name": "Château de la Treyne", "zipCode": "46200", "nbStars": "1"},
{"name": "Dyades au Domaine des Étangs", "zipCode": "16310", "nbStars": "1"},
{"name": "Le Relais Bernard Loiseau", "zipCode": "21210", "nbStars": "2"},
{"name": "Fontevraud Le Restaurant", "zipCode": "49590", "nbStars": "1"},
{"name": "Le Saint-Martin", "zipCode": "06140", "nbStars": "1"},
{"name": "Auberge au Boeuf", "zipCode": "67770", "nbStars": "1"},
{"name": "Le Domaine du Colombier", "zipCode": "26780", "nbStars": "1"},
{"name": "Bruno", "zipCode": "83510", "nbStars": "1"},
{"name": "La Table de Nans", "zipCode": "13600", "nbStars": "1"},
{"name": "La Bastide de Moustiers", "zipCode": "04360", "nbStars": "1"},
{"name": "Hostellerie Les Gorges de Pennafort", "zipCode": "83830", "nbStars": "1"},
{"name": "L'Aparté", "zipCode": "31850", "nbStars": "1"},
{"name": "Le Haut-Allier", "zipCode": "43580", "nbStars": "1"},
{"name": "La Ferme de l'Hospital", "zipCode": "74160", "nbStars": "1"},
{"name": "Relais de la Poste", "zipCode": "67610", "nbStars": "1"},
{"name": "Shang Palace", "zipCode": "75016", "nbStars": "1"},
{"name": "Le Vivarais", "zipCode": "07600", "nbStars": "1"},
{"name": "L'Atelier de Joël Robuchon - St-Germain", "zipCode": "75007", "nbStars": "2"},
{"name": "La Coquerie", "zipCode": "34200", "nbStars": "1"},
{"name": "L'Ekrin by Laurent Azoulay", "zipCode": "73550", "nbStars": "1"},
{"name": "L'Orangerie du Château", "zipCode": "41000", "nbStars": "1"},
{"name": "Château de Courban", "zipCode": "21520", "nbStars": "1"},
{"name": "La Table Saint-Crescent", "zipCode": "11100", "nbStars": "1"},
{"name": "Le Mas du Langoustier", "zipCode": "83400", "nbStars": "1"},
{"name": "Yam'Tcha", "zipCode": "75001", "nbStars": "1"},
{"name": "Le Candille", "zipCode": "06250", "nbStars": "1"},
{"name": "Le Moulin du Roc", "zipCode": "24530", "nbStars": "1"},
{"name": "Greuze", "zipCode": "71700", "nbStars": "1"},
{"name": "La Mare aux Oiseaux", "zipCode": "44720", "nbStars": "1"},
{"name": "Cayola", "zipCode": "85180", "nbStars": "1"},
{"name": "Le Bouche à Oreille", "zipCode": "91150", "nbStars": "1"},
{"name": "La Promenade", "zipCode": "31590", "nbStars": "1"},
{"name": "Au 14 Février", "zipCode": "71570", "nbStars": "2"},
{"name": "Mirazur", "zipCode": "06500", "nbStars": "2"},
{"name": "Les Voiles d'Or", "zipCode": "76200", "nbStars": "1"},
{"name": "Qui plume la Lune", "zipCode": "75011", "nbStars": "1"},
{"name": "Pierre Orsi", "zipCode": "69006", "nbStars": "1"},
{"name": "La Scène", "zipCode": "75008", "nbStars": "1"},
{"name": "Le Gambetta", "zipCode": "49400", "nbStars": "1"},
{"name": "La Chaumière", "zipCode": "39100", "nbStars": "1"},
{"name": "L'Arnsbourg", "zipCode": "57230", "nbStars": "1"},
{"name": "Maximilien", "zipCode": "68340", "nbStars": "1"},
{"name": "Numéro 3", "zipCode": "78490", "nbStars": "1"},
{"name": "Château de Codignat", "zipCode": "63190", "nbStars": "1"},
{"name": "La Chassagnette", "zipCode": "13200", "nbStars": "1"},
{"name": "La Table de l'Alpaga", "zipCode": "74120", "nbStars": "1"},
{"name": "Alain Ducasse au Plaza Athénée", "zipCode": "75008", "nbStars": "3"},
{"name": "Paloma", "zipCode": "06250", "nbStars": "2"},
{"name": "William Frachot", "zipCode": "21000", "nbStars": "2"},
{"name": "L'Orée de la Forêt", "zipCode": "60600", "nbStars": "1"},
{"name": "Chez Michèle", "zipCode": "57810", "nbStars": "1"},
{"name": "Restaurant des Rois", "zipCode": "06310", "nbStars": "1"},
{"name": "114, Faubourg", "zipCode": "75008", "nbStars": "1"},
{"name": "Guy Savoy", "zipCode": "75006", "nbStars": "3"},
{"name": "Paul Bocuse", "zipCode": "69660", "nbStars": "3"},
{"name": "L'Auberge des Glazicks", "zipCode": "29550", "nbStars": "2"},
{"name": "Lasserre", "zipCode": "75008", "nbStars": "1"},
{"name": "La Liégeoise", "zipCode": "62930", "nbStars": "1"},
{"name": "Les Prés d'Eugénie - Michel Guérard", "zipCode": "40320", "nbStars": "3"},
{"name": "Buerehiesel", "zipCode": "67000", "nbStars": "1"},
{"name": "Hélène Darroze", "zipCode": "75006", "nbStars": "1"},
{"name": "Le Bois sans Feuilles", "zipCode": "42155", "nbStars": "3"},
{"name": "La Bonne Auberge", "zipCode": "57350", "nbStars": "1"},
{"name": "Le Vieux Logis", "zipCode": "24510", "nbStars": "1"},
{"name": "Au Trou Gascon", "zipCode": "75012", "nbStars": "1"},
{"name": "Auberge du Vieux Puits", "zipCode": "11360", "nbStars": "3"},
{"name": "Ô Flaveurs", "zipCode": "74140", "nbStars": "1"},
{"name": "Manoir de la Boulaie", "zipCode": "44115", "nbStars": "2"},
{"name": "Christophe Bacquié", "zipCode": "83330", "nbStars": "3"},
{"name": "Maison Rostang", "zipCode": "75017", "nbStars": "2"},
{"name": "Le Clair de la Plume", "zipCode": "26230", "nbStars": "1"},
{"name": "Skab", "zipCode": "30000", "nbStars": "1"},
{"name": "Le Chabichou", "zipCode": "73120", "nbStars": "2"},
{"name": "1912", "zipCode": "14360", "nbStars": "1"},
{"name": "La Table de l'Espadon", "zipCode": "75001", "nbStars": "2"},
{"name": "Les Morainières", "zipCode": "73170", "nbStars": "2"},
{"name": "L'Atelier d'Edmond", "zipCode": "73150", "nbStars": "2"},
{"name": "Auberge des Templiers", "zipCode": "45290", "nbStars": "1"},
{"name": "Stéphane Derbord", "zipCode": "21000", "nbStars": "1"},
{"name": "Les Terrasses d'Uriage", "zipCode": "38410", "nbStars": "2"},
{"name": "Le Clos des Sens", "zipCode": "74940", "nbStars": "2"},
{"name": "Le Hittau", "zipCode": "40230", "nbStars": "1"},
{"name": "Flaveur", "zipCode": "06000", "nbStars": "2"},
{"name": "L'Almandin", "zipCode": "66750", "nbStars": "1"},
{"name": "Le Figuier de St-Esprit", "zipCode": "06600", "nbStars": "1"},
{"name": "Michel Trama", "zipCode": "47270", "nbStars": "2"},
{"name": "Le Saison", "zipCode": "35760", "nbStars": "1"},
{"name": "La Palmeraie", "zipCode": "83420", "nbStars": "1"},
{"name": "Le Restaurant", "zipCode": "75006", "nbStars": "1"},
{"name": "Pierre Gagnaire", "zipCode": "75008", "nbStars": "3"},
{"name": "Origine", "zipCode": "76000", "nbStars": "1"},
{"name": "L'Arcane", "zipCode": "75018", "nbStars": "1"},
{"name": "Château de Sully", "zipCode": "14400", "nbStars": "1"},
{"name": "Avel Vor", "zipCode": "56290", "nbStars": "1"},
{"name": "Girardin", "zipCode": "68000", "nbStars": "1"},
{"name": "Aux Terrasses", "zipCode": "71700", "nbStars": "1"},
{"name": "Jérôme Feck", "zipCode": "51000", "nbStars": "1"},
{"name": "La Fourchette du Printemps", "zipCode": "75017", "nbStars": "1"},
{"name": "Le Petit Hôtel du Grand Large", "zipCode": "56510", "nbStars": "1"},
